[
    {
        "Altitude(m)": 571842.639054243,
        "Argument of Periapsis(deg)": 0.013245982221427002,
        "Eccentricity": 0.0,
        "Inclination(deg)": 53.0,
        "Latitude(deg)": -53.144760359785565,
        "Longitude(deg)": 57.24187721002946,
        "Mean Anomaly(deg)": -90.72591426484482,
        "RAAN(deg)": 249.98028673705608,
        "Satellite Name": "Starlink Shell 1 1115",
        "Satellite Number": 1115,
        "Semi-Major Axis(m)": 6931778.249405717,
        "Time(s)": 380
    },
    {
        "Altitude(m)": 571844.7784920253,
        "Argument of Periapsis(deg)": 0.013594560700938237,
        "Eccentricity": 0.0,
        "Inclination(deg)": 53.0,
        "Latitude(deg)": -53.15052200387774,
        "Longitude(deg)": 58.239214348423495,
        "Mean Anomaly(deg)": -90.09908306128816,
        "RAAN(deg)": 249.97976796697859,
        "Satellite Name": "Starlink Shell 1 1115",
        "Satellite Number": 1115,
        "Semi-Major Axis(m)": 6931778.249405717,
        "Time(s)": 390
    },
    {
        "Altitude(m)": 571843.4368180513,
        "Argument of Periapsis(deg)": 0.013943139180449475,
        "Eccentricity": 0.0,
        "Inclination(deg)": 53.0,
        "Latitude(deg)": -53.14722952703702,
        "Longitude(deg)": 59.23661081754952,
        "Mean Anomaly(deg)": -89.47225185773148,
        "RAAN(deg)": 249.9792491969011,
        "Satellite Name": "Starlink Shell 1 1115",
        "Satellite Number": 1115,
        "Semi-Major Axis(m)": 6931778.249405717,
        "Time(s)": 400
    },
    {
        "Altitude(m)": 571838.6145465319,
        "Argument of Periapsis(deg)": 0.014291717659960712,
        "Eccentricity": 0.0,
        "Inclination(deg)": 53.0,
        "Latitude(deg)": -53.134885372015724,
        "Longitude(deg)": 60.23363093137755,
        "Mean Anomaly(deg)": -88.84542065417466,
        "RAAN(deg)": 249.97873042682366,
        "Satellite Name": "Starlink Shell 1 1115",
        "Satellite Number": 1115,
        "Semi-Major Axis(m)": 6931778.249405717,
        "Time(s)": 410
    },
    {
        "Altitude(m)": 571830.3135811464,
        "Argument of Periapsis(deg)": 0.014640296139471948,
        "Eccentricity": 0.0,
        "Inclination(deg)": 53.0,
        "Latitude(deg)": -53.113498691118636,
        "Longitude(deg)": 61.22983962586756,
        "Mean Anomaly(deg)": -88.21858945061797,
        "RAAN(deg)": 249.97821165674617,
        "Satellite Name": "Starlink Shell 1 1115",
        "Satellite Number": 1115,
        "Semi-Major Axis(m)": 6931778.249405717,
        "Time(s)": 420
    },
    {
        "Altitude(m)": 571818.5372142158,
        "Argument of Periapsis(deg)": 0.014988874618983185,
        "Eccentricity": 0.0,
        "Inclination(deg)": 53.0,
        "Latitude(deg)": -53.08308531268754,
        "Longitude(deg)": 62.22480425932434,
        "Mean Anomaly(deg)": -87.59175824706129,
        "RAAN(deg)": 249.97769288666868,
        "Satellite Name": "Starlink Shell 1 1115",
        "Satellite Number": 1115,
        "Semi-Major Axis(m)": 6931778.249405717,
        "Time(s)": 430
    },
    {
        "Altitude(m)": 571803.2901252978,
        "Argument of Periapsis(deg)": 0.015337453098494424,
        "Eccentricity": 0.0,
        "Inclination(deg)": 53.0,
        "Latitude(deg)": -53.043667683316805,
        "Longitude(deg)": 63.21809639499003,
        "Mean Anomaly(deg)": -86.96492704350456,
        "RAAN(deg)": 249.97717411659121,
        "Satellite Name": "Starlink Shell 1 1115",
        "Satellite Number": 1115,
        "Semi-Major Axis(m)": 6931778.249405717,
        "Time(s)": 440
    },
    {
        "Altitude(m)": 571784.5783791414,
        "Argument of Periapsis(deg)": 0.01568603157800566,
        "Eccentricity": 0.0,
        "Inclination(deg)": 53.0,
        "Latitude(deg)": -52.99527478629495,
        "Longitude(deg)": 64.20929204377354,
        "Mean Anomaly(deg)": -86.3380958399478,
        "RAAN(deg)": 249.97665534651378,
        "Satellite Name": "Starlink Shell 1 1115",
        "Satellite Number": 1115,
        "Semi-Major Axis(m)": 6931778.249405717,
        "Time(s)": 450
    },
    {
        "Altitude(m)": 571762.4094231006,
        "Argument of Periapsis(deg)": 0.0160346100575169,
        "Eccentricity": 0.0,
        "Inclination(deg)": 53.0,
        "Latitude(deg)": -52.93794203696075,
        "Longitude(deg)": 65.19797338398784,
        "Mean Anomaly(deg)": -85.71126463639114,
        "RAAN(deg)": 249.97613657643626,
        "Satellite Name": "Starlink Shell 1 1115",
        "Satellite Number": 1115,
        "Semi-Major Axis(m)": 6931778.249405717,
        "Time(s)": 460
    },
    {
        "Altitude(m)": 571736.7920838923,
        "Argument of Periapsis(deg)": 0.016383188537028134,
        "Eccentricity": 0.0,
        "Inclination(deg)": 53.0,
        "Latitude(deg)": -52.87171115585621,
        "Longitude(deg)": 66.18373043683701,
        "Mean Anomaly(deg)": -85.08443343283439,
        "RAAN(deg)": 249.97561780635883,
        "Satellite Name": "Starlink Shell 1 1115",
        "Satellite Number": 1115,
        "Semi-Major Axis(m)": 6931778.249405717,
        "Time(s)": 470
    },
    {
        "Altitude(m)": 571707.7365637919,
        "Argument of Periapsis(deg)": 0.01673176701653937,
        "Eccentricity": 0.0,
        "Inclination(deg)": 53.0,
        "Latitude(deg)": -52.796630020731875,
        "Longitude(deg)": 67.16616117698233,
        "Mean Anomaly(deg)": -84.45760222927771,
        "RAAN(deg)": 249.97509903628134,
        "Satellite Name": "Starlink Shell 1 1115",
        "Satellite Number": 1115,
        "Semi-Major Axis(m)": 6931778.249405717,
        "Time(s)": 480
    },
    {
        "Altitude(m)": 571675.2544362289,
        "Argument of Periapsis(deg)": 0.017080345496050607,
        "Eccentricity": 0.0,
        "Inclination(deg)": 53.0,
        "Latitude(deg)": -52.712752498615856,
        "Longitude(deg)": 68.14487309681363,
        "Mean Anomaly(deg)": -83.83077102572094,
        "RAAN(deg)": 249.97458026620382,
        "Satellite Name": "Starlink Shell 1 1115",
        "Satellite Number": 1115,
        "Semi-Major Axis(m)": 6931778.249405717,
        "Time(s)": 490
    },
    {
        "Altitude(m)": 571639.3586407717,
        "Argument of Periapsis(deg)": 0.017428923975561842,
        "Eccentricity": 0.0,
        "Inclination(deg)": 53.0,
        "Latitude(deg)": -52.62013825930377,
        "Longitude(deg)": 69.11948470518931,
        "Mean Anomaly(deg)": -83.20393982216432,
        "RAAN(deg)": 249.9740614961264,
        "Satellite Name": "Starlink Shell 1 1115",
        "Satellite Number": 1115,
        "Semi-Major Axis(m)": 6931778.249405717,
        "Time(s)": 500
    },
    {
        "Altitude(m)": 571600.0634775438,
        "Argument of Periapsis(deg)": 0.01777750245507308,
        "Eccentricity": 0.0,
        "Inclination(deg)": 53.0,
        "Latitude(deg)": -52.518852571748326,
        "Longitude(deg)": 70.0896254422466,
        "Mean Anomaly(deg)": -82.57710861860755,
        "RAAN(deg)": 249.97354272604892,
        "Satellite Name": "Starlink Shell 1 1115",
        "Satellite Number": 1115,
        "Semi-Major Axis(m)": 6931778.249405717,
        "Time(s)": 510
    },
    {
        "Altitude(m)": 571557.3846010373,
        "Argument of Periapsis(deg)": 0.018126080934584315,
        "Eccentricity": 0.0,
        "Inclination(deg)": 53.0,
        "Latitude(deg)": -52.40896608492616,
        "Longitude(deg)": 71.05493703134921,
        "Mean Anomaly(deg)": -81.95027741505075,
        "RAAN(deg)": 249.97302395597143,
        "Satellite Name": "Starlink Shell 1 1115",
        "Satellite Number": 1115,
        "Semi-Major Axis(m)": 6931778.249405717,
        "Time(s)": 520
    },
    {
        "Altitude(m)": 571511.3390133306,
        "Argument of Periapsis(deg)": 0.018474659414095554,
        "Eccentricity": 0.0,
        "Inclination(deg)": 53.0,
        "Latitude(deg)": -52.29055459483014,
        "Longitude(deg)": 72.0150747516458,
        "Mean Anomaly(deg)": -81.32344621149413,
        "RAAN(deg)": 249.972505185894,
        "Satellite Name": "Starlink Shell 1 1115",
        "Satellite Number": 1115,
        "Semi-Major Axis(m)": 6931778.249405717,
        "Time(s)": 530
    },
    {
        "Altitude(m)": 571461.9450567641,
        "Argument of Periapsis(deg)": 0.018823237893606792,
        "Eccentricity": 0.0,
        "Inclination(deg)": 53.0,
        "Latitude(deg)": -52.163698799380185,
        "Longitude(deg)": 72.96970711492335,
        "Mean Anomaly(deg)": -80.69661500793747,
        "RAAN(deg)": 249.9719864158165,
        "Satellite Name": "Starlink Shell 1 1115",
        "Satellite Number": 1115,
        "Semi-Major Axis(m)": 6931778.249405717,
        "Time(s)": 540
    },
    {
        "Altitude(m)": 571409.2224059487,
        "Argument of Periapsis(deg)": 0.019171816373118027,
        "Eccentricity": 0.0,
        "Inclination(deg)": 53.0,
        "Latitude(deg)": -52.0284840428354,
        "Longitude(deg)": 73.91851697199418,
        "Mean Anomaly(deg)": -80.06978380438069,
        "RAAN(deg)": 249.971467645739,
        "Satellite Name": "Starlink Shell 1 1115",
        "Satellite Number": 1115,
        "Semi-Major Axis(m)": 6931778.249405717,
        "Time(s)": 550
    },
    {
        "Altitude(m)": 571353.1920593046,
        "Argument of Periapsis(deg)": 0.019520394852629266,
        "Eccentricity": 0.0,
        "Inclination(deg)": 53.0,
        "Latitude(deg)": -51.88500005169862,
        "Longitude(deg)": 74.86120253286559,
        "Mean Anomaly(deg)": -79.44295260082397,
        "RAAN(deg)": 249.97094887566155,
        "Satellite Name": "Starlink Shell 1 1115",
        "Satellite Number": 1115,
        "Semi-Major Axis(m)": 6931778.249405717,
        "Time(s)": 560
    }
]